      2.10          N: GNSS NAV DATA                        RINEX VERSION / TYPE
fic2rin                                 05/03/2022 00:17:29 PGM / RUN BY / DATE
                                                            END OF HEADER
8  22  5  2  1 59 44.0 -.662677921355D-04 -.159161572810D-11  .000000000000D+00
     .370000000000D+02 -.298437500000D+02  .468912389226D-08  .643690235185D+00
    -.153854489326D-05  .743693439290D-02  .812113285065D-06  .515375326729D+04
     .935840000000D+05  .838190317154D-07  .191500430138D+01  .134110450745D-06
     .963567491699D+00  .365437500000D+03  .161030268700D+00 -.852821237713D-08
    -.335728270144D-10  .100000000000D+01  .220800000000D+04  .000000000000D+00
     .240000000000D+01  .000000000000D+00  .512227416039D-08  .370000000000D+02
     .864000000000D+05  .400000000000D+01
6  22  5  2  1 59 44.0  .287554226816D-03  .142108547152D-10  .000000000000D+00
     .350000000000D+02 -.103125000000D+03  .379301513716D-08 -.130506755225D+01
    -.550784170628D-05  .260654988233D-02  .101085752249D-04  .515372098541D+04
     .935840000000D+05 -.428408384323D-07  .298816341465D+01 -.465661287308D-07
     .987268724894D+00  .203281250000D+03 -.867330259718D+00 -.764067540766D-08
     .289297764699D-10  .100000000000D+01  .220800000000D+04  .000000000000D+00
     .240000000000D+01  .000000000000D+00  .372529029846D-08  .350000000000D+02
     .864000000000D+05  .400000000000D+01
21 22  5  2  8  0  0.0  .160864554346D-03  .227373675443D-12  .000000000000D+00
     .650000000000D+02 -.104812500000D+03  .408231290186D-08 -.232431804214D+01
    -.498816370964D-05  .243257362163D-01  .936537981033D-05  .515376396942D+04
     .115200000000D+06 -.130385160446D-07  .290336099698D+01  .474974513054D-06
     .960337539742D+00  .192406250000D+03 -.957033313970D+00 -.760210237236D-08
    -.385730352932D-10  .100000000000D+01  .220800000000D+04  .000000000000D+00
     .240000000000D+01  .000000000000D+00 -.102445483208D-07  .650000000000D+02
     .108000000000D+06  .400000000000D+01
19 22  5  2  8  0  0.0  .151937361807D-03  .500222085975D-11  .000000000000D+00
     .630000000000D+02 -.553125000000D+02  .425446292974D-08 -.126516745496D+00
    -.282004475594D-05  .918667658698D-02  .201538205147D-05  .515369307327D+04
     .115200000000D+06 -.184401869774D-06  .204275529623D+01 -.219792127609D-06
     .977634353115D+00  .354531250000D+03  .204858427868D+01 -.831284626341D-08
    -.224295057075D-09  .100000000000D+01  .220800000000D+04  .000000000000D+00
     .240000000000D+01  .000000000000D+00 -.158324837685D-07  .630000000000D+02
     .108000000000D+06  .400000000000D+01
11 22  5  2  8  0  0.0 -.306121073663D-04  .568434188608D-11  .000000000000D+00
     .180000000000D+02 -.115718750000D+03  .404088260469D-08 -.257109555268D+01
    -.577419996262D-05  .323923770338D-03  .100340694189D-04  .515357357979D+04
     .115200000000D+06  .279396772385D-07  .303823290212D+01 -.558793544769D-08
     .963086612972D+00  .186062500000D+03  .286800276440D+01 -.781032533140D-08
     .742888087128D-10  .100000000000D+01  .220800000000D+04  .000000000000D+00
     .240000000000D+01  .630000000000D+02 -.884756445885D-08  .180000000000D+02
     .108000000000D+06  .400000000000D+01
27 22  5  2  8  0  0.0  .195502769202D-03  .738964445191D-11  .000000000000D+00
     .590000000000D+02 -.365000000000D+02  .428589281035D-08 -.246385282456D+01
    -.183843076229D-05  .105295325629D-01  .115111470222D-05  .515365556335D+04
     .115200000000D+06  .521540641785D-07  .193488989604D+01 -.968575477600D-07
     .972303247030D+00  .363968750000D+03  .675440173012D+00 -.813355308085D-08
    -.489306095849D-10  .100000000000D+01  .220800000000D+04  .000000000000D+00
     .240000000000D+01  .000000000000D+00  .139698386192D-08  .590000000000D+02
     .108000000000D+06  .400000000000D+01
17 22  5  2  8  0  0.0  .607579015195D-03  .488853402203D-11  .000000000000D+00
     .360000000000D+02 -.538750000000D+02  .415910181471D-08 -.252989733942D+01
    -.263564288616D-05  .135200767545D-01  .116787850857D-05  .515354304695D+04
     .115200000000D+06  .145286321640D-06  .199792511966D+01  .372529029846D-08
     .978800057443D+00  .367218750000D+03 -.149530346043D+01 -.798497546342D-08
    -.180364655769D-09  .100000000000D+01  .220800000000D+04  .000000000000D+00
     .240000000000D+01  .000000000000D+00 -.111758708954D-07  .360000000000D+02
     .108000000000D+06  .400000000000D+01
22 22  5  2  8  0  0.0  .252520199865D-03  .613908923697D-11  .000000000000D+00
     .920000000000D+02 -.220312500000D+02  .500485132929D-08 -.262306622800D+01
    -.111758708954D-05  .133213106310D-01  .494904816151D-05  .515367794800D+04
     .115200000000D+06  .288709998131D-06 -.112303091516D+01  .670552253723D-07
     .961054847975D+00  .280656250000D+03 -.185536924024D+01 -.804962101331D-08
    -.106075847056D-09  .100000000000D+01  .220800000000D+04  .000000000000D+00
     .340000000000D+01  .000000000000D+00 -.977888703346D-08  .920000000000D+02
     .108000000000D+06  .400000000000D+01
25 22  5  2  8  0  0.0  .319451093674D-03  .488853402203D-11  .000000000000D+00
     .930000000000D+02  .118750000000D+03  .460626329793D-08  .188210043132D-01
     .630691647530D-05  .105303047458D-01  .671669840813D-05  .515368339729D+04
     .115200000000D+06 -.465661287308D-07  .881811665304D+00  .139698386192D-06
     .957070671046D+00  .246406250000D+03  .100308937932D+01 -.834213319762D-08
     .112504686272D-09  .100000000000D+01  .220800000000D+04  .000000000000D+00
     .240000000000D+01  .000000000000D+00  .558793544769D-08  .930000000000D+02
     .108000000000D+06  .400000000000D+01
23 22  5  2  8  0  0.0 -.190958380699D-04 -.261479726760D-11  .000000000000D+00
     .260000000000D+02  .562500000000D+01  .435482425305D-08  .858343142877D+00
     .307336449623D-06  .209465448279D-02  .933930277824D-05  .515370719147D+04
     .115200000000D+06  .465661287308D-07 -.228120189792D+01  .149011611938D-07
     .968319522143D+00  .205750000000D+03  .299997106680D+01 -.778603860547D-08
     .638240871008D-09  .100000000000D+01  .220800000000D+04  .000000000000D+00
     .240000000000D+01  .000000000000D+00 -.838190317154D-08  .794000000000D+03
     .108000000000D+06  .400000000000D+01
18 22  5  2  8  0  0.0  .180900562555D-03 -.989075488178D-11  .000000000000D+00
     .229000000000D+03 -.110062500000D+03  .393730686178D-08  .191967108466D+01
    -.574067234993D-05  .225991359912D-02  .903196632862D-05  .515360936737D+04
     .115200000000D+06 -.465661287308D-07  .300295121965D+01 -.111758708954D-07
     .971728090547D+00  .211125000000D+03  .304487549524D+01 -.771353558543D-08
    -.360729311538D-10  .100000000000D+01  .220800000000D+04  .000000000000D+00
     .240000000000D+01  .000000000000D+00 -.838190317154D-08  .485000000000D+03
     .108000000000D+06  .400000000000D+01
28 22  5  2  8  0  0.0  .364470761269D-03 -.545696821064D-11  .000000000000D+00
     .350000000000D+02  .130343750000D+03  .415945897245D-08 -.201140211934D+01
     .678561627865D-05  .166044384241D-01  .531785190105D-05  .515369137764D+04
     .115200000000D+06  .968575477600D-07  .981500130232D+00  .378116965294D-06
     .968585309489D+00  .283562500000D+03 -.128043244921D+01 -.793890211571D-08
     .950039572962D-10  .100000000000D+01  .220800000000D+04  .000000000000D+00
     .240000000000D+01  .630000000000D+02 -.111758708954D-07  .350000000000D+02
     .108000000000D+06  .400000000000D+01
12 22  5  2  7 59 44.0 -.209157820791D-03 -.579802872380D-11  .000000000000D+00
     .900000000000D+01  .122406250000D+03  .425160566787D-08  .320317157444D+00
     .637397170067D-05  .868913659360D-02  .650621950626D-05  .515356336403D+04
     .115184000000D+06 -.152736902237D-06  .959475292900D+00  .260770320892D-07
     .969533065355D+00  .258468750000D+03  .128200485939D+01 -.817319758934D-08
     .128576784311D-09  .100000000000D+01  .220800000000D+04  .000000000000D+00
     .240000000000D+01  .000000000000D+00 -.125728547573D-07  .900000000000D+01
     .108540000000D+06  .400000000000D+01
30 22  5  2  7 59 44.0 -.526251271367D-03 -.159161572810D-11  .000000000000D+00
     .500000000000D+01  .266875000000D+02  .502449500467D-08  .941078539219D+00
     .162236392498D-05  .577105034608D-02  .105630606413D-04  .515378144646D+04
     .115184000000D+06  .707805156708D-07 -.141249256581D+00  .167638063431D-07
     .936422214338D+00  .161062500000D+03 -.270616745188D+01 -.819855578847D-08
    -.595381942905D-09  .100000000000D+01  .220800000000D+04  .000000000000D+00
     .240000000000D+01  .000000000000D+00  .372529029846D-08  .500000000000D+01
     .108750000000D+06  .400000000000D+01
3  22  5  2  7 59 44.0 -.229078345001D-03 -.144382283906D-10  .000000000000D+00
     .600000000000D+01  .200312500000D+02  .430125059292D-08  .491044906746D+00
     .776723027229D-06  .410589994863D-02  .913254916668D-05  .515363219070D+04
     .115184000000D+06 -.596046447754D-07 -.225319771649D+01  .577419996262D-07
     .973412595365D+00  .212281250000D+03  .946665771538D+00 -.785461289044D-08
     .638598028743D-09  .100000000000D+01  .220800000000D+04  .000000000000D+00
     .240000000000D+01  .000000000000D+00  .186264514923D-08  .600000000000D+01
     .108840000000D+06  .400000000000D+01
